ALOS-4 (DAICHI-4)       
1 60182U 24123A   24239.19719467  .00003066  00000+0  41726-3 0  9990
2 60182  97.9209 334.8531 0001555  97.1421 262.9967 14.79475223  8296
